GLOBALSTAR M045         
1 25676U 99019A   24210.57624207 -.00000051  00000+0  37704-3 0  9996
2 25676  51.9960 147.6141 0000724 344.4929 186.1182 12.27042312153909
GLOBALSTAR M019         
1 25677U 99019B   24210.07465198 -.00000116  00000+0 -27630-3 0  9994
2 25677  51.9864 256.6086 0000743  49.3819 344.3803 12.13861565145972
GLOBALSTAR M044         
1 25678U 99019C   24210.20130674 -.00000052  00000+0  43696-3 0  9996
2 25678  51.9948 167.0818 0006194 132.3438 330.2503 11.90235714132725
GLOBALSTAR M042         
1 25679U 99019D   24210.52247272 -.00000046  00000+0  42977-3 0  9999
2 25679  51.9989 244.6573 0002698 351.6736 158.2726 12.22065950145754
GLOBALSTAR M025         
1 25770U 99031A   24209.90739785 -.00000053  00000+0  44502-3 0  9994
2 25770  51.9779 190.4856 0001793 321.8212  74.2708 11.22551576445290
GLOBALSTAR M049         
1 25771U 99031B   24209.69516414 -.00000030  00000+0  12212-2 0  9990
2 25771  51.9830 209.4336 0002897 193.6543 166.4176 11.12108138 81325
GLOBALSTAR M047         
1 25772U 99031C   24209.79469618 -.00000073  00000+0 -10154-3 0  9997
2 25772  51.9799 237.1714 0016046  66.0020 294.2464 11.31921416434372
GLOBALSTAR M052         
1 25773U 99031D   24209.82489361 -.00000084  00000+0 -61836-3 0  9994
2 25773  51.9898 322.3796 0002184   5.4888 138.8094 11.15052105442325
